[{"OBJECT_NAME":"O3B FM20","OBJECT_ID":"2019-020A","EPOCH":"2026-04-26T15:21:55.718208","MEAN_MOTION":5.0011551,"ECCENTRICITY":0.0002587,"INCLINATION":0.0532,"RA_OF_ASC_NODE":1.3328,"ARG_OF_PERICENTER":24.1404,"MEAN_ANOMALY":334.538,"EPHEMERIS_TYPE":0,"CLASSIFICATION_TYPE":"U","NORAD_CAT_ID":44112,"ELEMENT_SET_NO":999,"REV_AT_EPOCH":12899,"BSTAR":0,"MEAN_MOTION_DOT":-2.7e-7,"MEAN_MOTION_DDOT":0},{"OBJECT_NAME":"O3B FM19","OBJECT_ID":"2019-020B","EPOCH":"2026-04-21T16:04:51.104352","MEAN_MOTION":5.00115966,"ECCENTRICITY":0.0003491,"INCLINATION":0.0716,"RA_OF_ASC_NODE":348.2754,"ARG_OF_PERICENTER":26.5306,"MEAN_ANOMALY":345.2041,"EPHEMERIS_TYPE":0,"CLASSIFICATION_TYPE":"U","NORAD_CAT_ID":44113,"ELEMENT_SET_NO":999,"REV_AT_EPOCH":12861,"BSTAR":0,"MEAN_MOTION_DOT":-2.2e-7,"MEAN_MOTION_DDOT":0},{"OBJECT_NAME":"O3B FM17","OBJECT_ID":"2019-020C","EPOCH":"2026-04-26T08:20:35.041056","MEAN_MOTION":5.00115502,"ECCENTRICITY":0.0002611,"INCLINATION":0.0341,"RA_OF_ASC_NODE":355.141,"ARG_OF_PERICENTER":37.3518,"MEAN_ANOMALY":327.5216,"EPHEMERIS_TYPE":0,"CLASSIFICATION_TYPE":"U","NORAD_CAT_ID":44114,"ELEMENT_SET_NO":999,"REV_AT_EPOCH":12893,"BSTAR":0,"MEAN_MOTION_DOT":-2.7e-7,"MEAN_MOTION_DDOT":0},{"OBJECT_NAME":"O3B FM18","OBJECT_ID":"2019-020D","EPOCH":"2026-04-26T11:51:06.961248","MEAN_MOTION":5.00115269,"ECCENTRICITY":0.0002733,"INCLINATION":0.0536,"RA_OF_ASC_NODE":1.4893,"ARG_OF_PERICENTER":35.3839,"MEAN_ANOMALY":323.144,"EPHEMERIS_TYPE":0,"CLASSIFICATION_TYPE":"U","NORAD_CAT_ID":44115,"ELEMENT_SET_NO":999,"REV_AT_EPOCH":12906,"BSTAR":0,"MEAN_MOTION_DOT":-2.7e-7,"MEAN_MOTION_DDOT":0},{"OBJECT_NAME":"SALSAT","OBJECT_ID":"2020-068K","EPOCH":"2026-04-26T11:00:12.410208","MEAN_MOTION":15.29015639,"ECCENTRICITY":0.00115423,"INCLINATION":97.8864,"RA_OF_ASC_NODE":116.4064,"ARG_OF_PERICENTER":119.6725,"MEAN_ANOMALY":240.5665,"EPHEMERIS_TYPE":0,"CLASSIFICATION_TYPE":"U","NORAD_CAT_ID":46495,"ELEMENT_SET_NO":999,"REV_AT_EPOCH":30745,"BSTAR":0.00034104261,"MEAN_MOTION_DOT":9.547e-5,"MEAN_MOTION_DDOT":0},{"OBJECT_NAME":"O3B MPOWER F1","OBJECT_ID":"2022-174A","EPOCH":"2026-04-26T20:24:25.622784","MEAN_MOTION":5.00114871,"ECCENTRICITY":0.0005894,"INCLINATION":0.0597,"RA_OF_ASC_NODE":347.2861,"ARG_OF_PERICENTER":65.4202,"MEAN_ANOMALY":89.0618,"EPHEMERIS_TYPE":0,"CLASSIFICATION_TYPE":"U","NORAD_CAT_ID":54755,"ELEMENT_SET_NO":999,"REV_AT_EPOCH":6279,"BSTAR":0,"MEAN_MOTION_DOT":-2.7e-7,"MEAN_MOTION_DDOT":0},{"OBJECT_NAME":"O3B MPOWER F2","OBJECT_ID":"2022-174B","EPOCH":"2026-04-26T17:43:02.462016","MEAN_MOTION":5.00115334,"ECCENTRICITY":0.000594,"INCLINATION":0.0562,"RA_OF_ASC_NODE":344.9587,"ARG_OF_PERICENTER":48.7072,"MEAN_ANOMALY":326.3703,"EPHEMERIS_TYPE":0,"CLASSIFICATION_TYPE":"U","NORAD_CAT_ID":54756,"ELEMENT_SET_NO":999,"REV_AT_EPOCH":6286,"BSTAR":0,"MEAN_MOTION_DOT":-2.7e-7,"MEAN_MOTION_DDOT":0},{"OBJECT_NAME":"O3B MPOWER F4","OBJECT_ID":"2023-059A","EPOCH":"2026-04-26T14:27:48.674880","MEAN_MOTION":5.00115901,"ECCENTRICITY":0.0007262,"INCLINATION":0.0649,"RA_OF_ASC_NODE":2.5883,"ARG_OF_PERICENTER":44.9517,"MEAN_ANOMALY":312.5198,"EPHEMERIS_TYPE":0,"CLASSIFICATION_TYPE":"U","NORAD_CAT_ID":56367,"ELEMENT_SET_NO":999,"REV_AT_EPOCH":5602,"BSTAR":0,"MEAN_MOTION_DOT":-2.7e-7,"MEAN_MOTION_DDOT":0},{"OBJECT_NAME":"O3B MPOWER F3","OBJECT_ID":"2023-059B","EPOCH":"2026-04-26T15:15:43.214976","MEAN_MOTION":5.00116609,"ECCENTRICITY":0.0006658,"INCLINATION":0.066,"RA_OF_ASC_NODE":2.2925,"ARG_OF_PERICENTER":35.594,"MEAN_ANOMALY":322.1589,"EPHEMERIS_TYPE":0,"CLASSIFICATION_TYPE":"U","NORAD_CAT_ID":56368,"ELEMENT_SET_NO":999,"REV_AT_EPOCH":5215,"BSTAR":0,"MEAN_MOTION_DOT":-2.7e-7,"MEAN_MOTION_DDOT":0},{"OBJECT_NAME":"O3B MPOWER F9","OBJECT_ID":"2025-153A","EPOCH":"2026-04-26T09:42:06.982272","MEAN_MOTION":5.00116073,"ECCENTRICITY":0.00055624,"INCLINATION":0.054,"RA_OF_ASC_NODE":15.2057,"ARG_OF_PERICENTER":45.203,"MEAN_ANOMALY":299.6452,"EPHEMERIS_TYPE":0,"CLASSIFICATION_TYPE":"U","NORAD_CAT_ID":64866,"ELEMENT_SET_NO":999,"REV_AT_EPOCH":1696,"BSTAR":0,"MEAN_MOTION_DOT":-2.7e-7,"MEAN_MOTION_DDOT":0},{"OBJECT_NAME":"O3B MPOWER F10","OBJECT_ID":"2025-153B","EPOCH":"2026-04-26T08:53:00.583296","MEAN_MOTION":5.0011494,"ECCENTRICITY":0.000284,"INCLINATION":0.0539,"RA_OF_ASC_NODE":10.3193,"ARG_OF_PERICENTER":262.4804,"MEAN_ANOMALY":87.1662,"EPHEMERIS_TYPE":0,"CLASSIFICATION_TYPE":"U","NORAD_CAT_ID":64867,"ELEMENT_SET_NO":999,"REV_AT_EPOCH":1944,"BSTAR":0,"MEAN_MOTION_DOT":-2.7e-7,"MEAN_MOTION_DDOT":0}]
